<?xml version="1.0" encoding="UTF-8"?>
<ndm xmlns:xsi="http://www.w3.org/2001/XMLSchema-instance" xsi:noNamespaceSchemaLocation="https://sanaregistry.org/r/ndmxml_unqualified/ndmxml-2.0.0-master-2.0.xsd">
<omm id="CCSDS_OMM_VERS" version="2.0">
<header><CREATION_DATE/><ORIGINATOR/></header><body><segment><metadata><OBJECT_NAME>GLOBALSTAR M063</OBJECT_NAME><OBJECT_ID>2000-008A</OBJECT_ID><CENTER_NAME>EARTH</CENTER_NAME><REF_FRAME>TEME</REF_FRAME><TIME_SYSTEM>UTC</TIME_SYSTEM><MEAN_ELEMENT_THEORY>SGP4</MEAN_ELEMENT_THEORY></metadata><data><meanElements><EPOCH>2025-02-09T20:33:29.790720</EPOCH><MEAN_MOTION>11.86166176</MEAN_MOTION><ECCENTRICITY>.0004939</ECCENTRICITY><INCLINATION>51.9953</INCLINATION><RA_OF_ASC_NODE>86.9144</RA_OF_ASC_NODE><ARG_OF_PERICENTER>75.1718</ARG_OF_PERICENTER><MEAN_ANOMALY>97.0787</MEAN_ANOMALY></meanElements><tleParameters><EPHEMERIS_TYPE>0</EPHEMERIS_TYPE><CLASSIFICATION_TYPE>U</CLASSIFICATION_TYPE><NORAD_CAT_ID>26081</NORAD_CAT_ID><ELEMENT_SET_NO>999</ELEMENT_SET_NO><REV_AT_EPOCH>14246</REV_AT_EPOCH><BSTAR>-.74769E-3</BSTAR><MEAN_MOTION_DOT>-.134E-5</MEAN_MOTION_DOT><MEAN_MOTION_DDOT>0</MEAN_MOTION_DDOT></tleParameters></data></segment></body></omm>
<omm id="CCSDS_OMM_VERS" version="2.0">
<header><CREATION_DATE/><ORIGINATOR/></header><body><segment><metadata><OBJECT_NAME>GLOBALSTAR M062</OBJECT_NAME><OBJECT_ID>2000-008B</OBJECT_ID><CENTER_NAME>EARTH</CENTER_NAME><REF_FRAME>TEME</REF_FRAME><TIME_SYSTEM>UTC</TIME_SYSTEM><MEAN_ELEMENT_THEORY>SGP4</MEAN_ELEMENT_THEORY></metadata><data><meanElements><EPOCH>2025-02-09T21:39:06.625728</EPOCH><MEAN_MOTION>12.43459759</MEAN_MOTION><ECCENTRICITY>.0007177</ECCENTRICITY><INCLINATION>51.9843</INCLINATION><RA_OF_ASC_NODE>110.0879</RA_OF_ASC_NODE><ARG_OF_PERICENTER>195.6393</ARG_OF_PERICENTER><MEAN_ANOMALY>335.9677</MEAN_ANOMALY></meanElements><tleParameters><EPHEMERIS_TYPE>0</EPHEMERIS_TYPE><CLASSIFICATION_TYPE>U</CLASSIFICATION_TYPE><NORAD_CAT_ID>26082</NORAD_CAT_ID><ELEMENT_SET_NO>999</ELEMENT_SET_NO><REV_AT_EPOCH>48078</REV_AT_EPOCH><BSTAR>.23384E-3</BSTAR><MEAN_MOTION_DOT>-.65E-6</MEAN_MOTION_DOT><MEAN_MOTION_DDOT>0</MEAN_MOTION_DDOT></tleParameters></data></segment></body></omm>
<omm id="CCSDS_OMM_VERS" version="2.0">
<header><CREATION_DATE/><ORIGINATOR/></header><body><segment><metadata><OBJECT_NAME>GLOBALSTAR M060</OBJECT_NAME><OBJECT_ID>2000-008C</OBJECT_ID><CENTER_NAME>EARTH</CENTER_NAME><REF_FRAME>TEME</REF_FRAME><TIME_SYSTEM>UTC</TIME_SYSTEM><MEAN_ELEMENT_THEORY>SGP4</MEAN_ELEMENT_THEORY></metadata><data><meanElements><EPOCH>2025-02-09T18:31:32.928960</EPOCH><MEAN_MOTION>12.17654696</MEAN_MOTION><ECCENTRICITY>.0003216</ECCENTRICITY><INCLINATION>52.0028</INCLINATION><RA_OF_ASC_NODE>52.4514</RA_OF_ASC_NODE><ARG_OF_PERICENTER>221.8167</ARG_OF_PERICENTER><MEAN_ANOMALY>309.7836</MEAN_ANOMALY></meanElements><tleParameters><EPHEMERIS_TYPE>0</EPHEMERIS_TYPE><CLASSIFICATION_TYPE>U</CLASSIFICATION_TYPE><NORAD_CAT_ID>26083</NORAD_CAT_ID><ELEMENT_SET_NO>999</ELEMENT_SET_NO><REV_AT_EPOCH>13684</REV_AT_EPOCH><BSTAR>.19031E-2</BSTAR><MEAN_MOTION_DOT>.1E-5</MEAN_MOTION_DOT><MEAN_MOTION_DDOT>0</MEAN_MOTION_DDOT></tleParameters></data></segment></body></omm>
<omm id="CCSDS_OMM_VERS" version="2.0">
<header><CREATION_DATE/><ORIGINATOR/></header><body><segment><metadata><OBJECT_NAME>GLOBALSTAR M064</OBJECT_NAME><OBJECT_ID>2000-008D</OBJECT_ID><CENTER_NAME>EARTH</CENTER_NAME><REF_FRAME>TEME</REF_FRAME><TIME_SYSTEM>UTC</TIME_SYSTEM><MEAN_ELEMENT_THEORY>SGP4</MEAN_ELEMENT_THEORY></metadata><data><meanElements><EPOCH>2025-02-09T15:33:47.128896</EPOCH><MEAN_MOTION>11.88530078</MEAN_MOTION><ECCENTRICITY>.0002187</ECCENTRICITY><INCLINATION>52.0012</INCLINATION><RA_OF_ASC_NODE>187.7934</RA_OF_ASC_NODE><ARG_OF_PERICENTER>145.0974</ARG_OF_PERICENTER><MEAN_ANOMALY>215.0002</MEAN_ANOMALY></meanElements><tleParameters><EPHEMERIS_TYPE>0</EPHEMERIS_TYPE><CLASSIFICATION_TYPE>U</CLASSIFICATION_TYPE><NORAD_CAT_ID>26084</NORAD_CAT_ID><ELEMENT_SET_NO>999</ELEMENT_SET_NO><REV_AT_EPOCH>15193</REV_AT_EPOCH><BSTAR>-.41792E-4</BSTAR><MEAN_MOTION_DOT>-.86E-6</MEAN_MOTION_DOT><MEAN_MOTION_DDOT>0</MEAN_MOTION_DDOT></tleParameters></data></segment></body></omm>
<omm id="CCSDS_OMM_VERS" version="2.0">
<header><CREATION_DATE/><ORIGINATOR/></header><body><segment><metadata><OBJECT_NAME>GLOBALSTAR M069</OBJECT_NAME><OBJECT_ID>2007-020C</OBJECT_ID><CENTER_NAME>EARTH</CENTER_NAME><REF_FRAME>TEME</REF_FRAME><TIME_SYSTEM>UTC</TIME_SYSTEM><MEAN_ELEMENT_THEORY>SGP4</MEAN_ELEMENT_THEORY></metadata><data><meanElements><EPOCH>2025-02-09T17:50:57.598080</EPOCH><MEAN_MOTION>12.47307763</MEAN_MOTION><ECCENTRICITY>.0001975</ECCENTRICITY><INCLINATION>51.9922</INCLINATION><RA_OF_ASC_NODE>217.1248</RA_OF_ASC_NODE><ARG_OF_PERICENTER>75.6897</ARG_OF_PERICENTER><MEAN_ANOMALY>297.6403</MEAN_ANOMALY></meanElements><tleParameters><EPHEMERIS_TYPE>0</EPHEMERIS_TYPE><CLASSIFICATION_TYPE>U</CLASSIFICATION_TYPE><NORAD_CAT_ID>31573</NORAD_CAT_ID><ELEMENT_SET_NO>999</ELEMENT_SET_NO><REV_AT_EPOCH>81832</REV_AT_EPOCH><BSTAR>.2046E-3</BSTAR><MEAN_MOTION_DOT>-.69E-6</MEAN_MOTION_DOT><MEAN_MOTION_DDOT>0</MEAN_MOTION_DDOT></tleParameters></data></segment></body></omm>
<omm id="CCSDS_OMM_VERS" version="2.0">
<header><CREATION_DATE/><ORIGINATOR/></header><body><segment><metadata><OBJECT_NAME>GLOBALSTAR M072</OBJECT_NAME><OBJECT_ID>2007-020D</OBJECT_ID><CENTER_NAME>EARTH</CENTER_NAME><REF_FRAME>TEME</REF_FRAME><TIME_SYSTEM>UTC</TIME_SYSTEM><MEAN_ELEMENT_THEORY>SGP4</MEAN_ELEMENT_THEORY></metadata><data><meanElements><EPOCH>2025-02-09T22:35:18.720096</EPOCH><MEAN_MOTION>11.91772193</MEAN_MOTION><ECCENTRICITY>.000147</ECCENTRICITY><INCLINATION>52.0105</INCLINATION><RA_OF_ASC_NODE>330.6954</RA_OF_ASC_NODE><ARG_OF_PERICENTER>76.6695</ARG_OF_PERICENTER><MEAN_ANOMALY>1.3045</MEAN_ANOMALY></meanElements><tleParameters><EPHEMERIS_TYPE>0</EPHEMERIS_TYPE><CLASSIFICATION_TYPE>U</CLASSIFICATION_TYPE><NORAD_CAT_ID>31574</NORAD_CAT_ID><ELEMENT_SET_NO>999</ELEMENT_SET_NO><REV_AT_EPOCH>81629</REV_AT_EPOCH><BSTAR>-.18662E-3</BSTAR><MEAN_MOTION_DOT>-.98E-6</MEAN_MOTION_DOT><MEAN_MOTION_DDOT>0</MEAN_MOTION_DDOT></tleParameters></data></segment></body></omm>
<omm id="CCSDS_OMM_VERS" version="2.0">
<header><CREATION_DATE/><ORIGINATOR/></header><body><segment><metadata><OBJECT_NAME>GLOBALSTAR M071</OBJECT_NAME><OBJECT_ID>2007-020F</OBJECT_ID><CENTER_NAME>EARTH</CENTER_NAME><REF_FRAME>TEME</REF_FRAME><TIME_SYSTEM>UTC</TIME_SYSTEM><MEAN_ELEMENT_THEORY>SGP4</MEAN_ELEMENT_THEORY></metadata><data><meanElements><EPOCH>2025-02-09T18:45:05.382720</EPOCH><MEAN_MOTION>12.18248637</MEAN_MOTION><ECCENTRICITY>.0001097</ECCENTRICITY><INCLINATION>52.0031</INCLINATION><RA_OF_ASC_NODE>227.8361</RA_OF_ASC_NODE><ARG_OF_PERICENTER>132.2534</ARG_OF_PERICENTER><MEAN_ANOMALY>242.5555</MEAN_ANOMALY></meanElements><tleParameters><EPHEMERIS_TYPE>0</EPHEMERIS_TYPE><CLASSIFICATION_TYPE>U</CLASSIFICATION_TYPE><NORAD_CAT_ID>31576</NORAD_CAT_ID><ELEMENT_SET_NO>999</ELEMENT_SET_NO><REV_AT_EPOCH>47941</REV_AT_EPOCH><BSTAR>-.2841E-3</BSTAR><MEAN_MOTION_DOT>-.12E-5</MEAN_MOTION_DOT><MEAN_MOTION_DDOT>0</MEAN_MOTION_DDOT></tleParameters></data></segment></body></omm>

</ndm>
