GLOBALSTAR M063         
1 26081U 00008A   25040.85659480 -.00000134  00000+0 -74769-3 0  9996
2 26081  51.9953  86.9144 0004939  75.1718  97.0787 11.86166176142465
GLOBALSTAR M062         
1 26082U 00008B   25040.90216002 -.00000065  00000+0  23384-3 0  9991
2 26082  51.9843 110.0879 0007177 195.6393 335.9677 12.43459759480780
GLOBALSTAR M060         
1 26083U 00008C   25040.77190890  .00000100  00000+0  19031-2 0  9995
2 26083  52.0028  52.4514 0003216 221.8167 309.7836 12.17654696136843
GLOBALSTAR M064         
1 26084U 00008D   25040.64846214 -.00000086  00000+0 -41792-4 0  9996
2 26084  52.0012 187.7934 0002187 145.0974 215.0002 11.88530078151939
GLOBALSTAR M069         
1 31573U 07020C   25040.74372220 -.00000069  00000+0  20460-3 0  9996
2 31573  51.9922 217.1248 0001975  75.6897 297.6403 12.47307763818321
GLOBALSTAR M072         
1 31574U 07020D   25040.94118889 -.00000098  00000+0 -18662-3 0  9992
2 31574  52.0105 330.6954 0001470  76.6695   1.3045 11.91772193816296
GLOBALSTAR M071         
1 31576U 07020F   25040.78131230 -.00000120  00000+0 -28410-3 0  9999
2 31576  52.0031 227.8361 0001097 132.2534 242.5555 12.18248637479416
